CCSDS_OMM_VERS = 2.0
CREATION_DATE  = 
ORIGINATOR     = 

OBJECT_NAME    = ATLAS CENTAUR 2
OBJECT_ID      = 1963-047A
CENTER_NAME    = EARTH
REF_FRAME      = TEME
TIME_SYSTEM    = UTC
MEAN_ELEMENT_THEORY = SGP/SGP4

EPOCH          = 2026-03-23T18:07:39.497664
MEAN_MOTION    = 14.12118639
ECCENTRICITY   = .05474082
INCLINATION    = 30.3545
RA_OF_ASC_NODE = 117.0314
ARG_OF_PERICENTER = 204.2567
MEAN_ANOMALY   = 153.1320

EPHEMERIS_TYPE = 0
CLASSIFICATION_TYPE = U
NORAD_CAT_ID   = 694
ELEMENT_SET_NO = 999
REV_AT_EPOCH   = 13361
BSTAR          = .24366825E-3
MEAN_MOTION_DOT = .2107E-4
MEAN_MOTION_DDOT = 0

CCSDS_OMM_VERS = 2.0
CREATION_DATE  = 
ORIGINATOR     = 

OBJECT_NAME    = THOR AGENA D R/B
OBJECT_ID      = 1964-002A
CENTER_NAME    = EARTH
REF_FRAME      = TEME
TIME_SYSTEM    = UTC
MEAN_ELEMENT_THEORY = SGP/SGP4

EPOCH          = 2026-03-24T07:32:18.328128
MEAN_MOTION    = 14.34027547
ECCENTRICITY   = .00323591
INCLINATION    = 99.1219
RA_OF_ASC_NODE = 97.4486
ARG_OF_PERICENTER = 214.4741
MEAN_ANOMALY   = 145.4343

EPHEMERIS_TYPE = 0
CLASSIFICATION_TYPE = U
NORAD_CAT_ID   = 733
ELEMENT_SET_NO = 999
REV_AT_EPOCH   = 24039
BSTAR          = .76373857E-4
MEAN_MOTION_DOT = .166E-5
MEAN_MOTION_DDOT = 0

CCSDS_OMM_VERS = 2.0
CREATION_DATE  = 
ORIGINATOR     = 

OBJECT_NAME    = SL-3 R/B
OBJECT_ID      = 1964-053B
CENTER_NAME    = EARTH
REF_FRAME      = TEME
TIME_SYSTEM    = UTC
MEAN_ELEMENT_THEORY = SGP/SGP4

EPOCH          = 2026-03-24T06:26:23.015616
MEAN_MOTION    = 14.61377786
ECCENTRICITY   = .0080258
INCLINATION    = 65.0759
RA_OF_ASC_NODE = 288.4951
ARG_OF_PERICENTER = 287.6320
MEAN_ANOMALY   = 71.6027

EPHEMERIS_TYPE = 0
CLASSIFICATION_TYPE = U
NORAD_CAT_ID   = 877
ELEMENT_SET_NO = 999
REV_AT_EPOCH   = 26892
BSTAR          = .56518028E-4
MEAN_MOTION_DOT = .167E-5
MEAN_MOTION_DDOT = 0

CCSDS_OMM_VERS = 2.0
CREATION_DATE  = 
ORIGINATOR     = 

OBJECT_NAME    = SL-8 R/B
OBJECT_ID      = 1967-045B
CENTER_NAME    = EARTH
REF_FRAME      = TEME
TIME_SYSTEM    = UTC
MEAN_ELEMENT_THEORY = SGP/SGP4

EPOCH          = 2026-03-24T02:34:38.738784
MEAN_MOTION    = 14.45634067
ECCENTRICITY   = .00647344
INCLINATION    = 74.0120
RA_OF_ASC_NODE = 321.1653
ARG_OF_PERICENTER = 324.2056
MEAN_ANOMALY   = 35.4771

EPHEMERIS_TYPE = 0
CLASSIFICATION_TYPE = U
NORAD_CAT_ID   = 2802
ELEMENT_SET_NO = 999
REV_AT_EPOCH   = 9110
BSTAR          = .91334808E-4
MEAN_MOTION_DOT = .302E-5
MEAN_MOTION_DDOT = 0

CCSDS_OMM_VERS = 2.0
CREATION_DATE  = 
ORIGINATOR     = 

OBJECT_NAME    = SL-8 R/B
OBJECT_ID      = 1968-040B
CENTER_NAME    = EARTH
REF_FRAME      = TEME
TIME_SYSTEM    = UTC
MEAN_ELEMENT_THEORY = SGP/SGP4

EPOCH          = 2026-03-24T06:48:42.380640
MEAN_MOTION    = 15.03348616
ECCENTRICITY   = .00234544
INCLINATION    = 74.0292
RA_OF_ASC_NODE = 283.8697
ARG_OF_PERICENTER = 101.9355
MEAN_ANOMALY   = 258.4465

EPHEMERIS_TYPE = 0
CLASSIFICATION_TYPE = U
NORAD_CAT_ID   = 3230
ELEMENT_SET_NO = 999
REV_AT_EPOCH   = 9220
BSTAR          = .2354234E-3
MEAN_MOTION_DOT = .3175E-4
MEAN_MOTION_DDOT = 0

CCSDS_OMM_VERS = 2.0
CREATION_DATE  = 
ORIGINATOR     = 

OBJECT_NAME    = OAO 2
OBJECT_ID      = 1968-110A
CENTER_NAME    = EARTH
REF_FRAME      = TEME
TIME_SYSTEM    = UTC
MEAN_ELEMENT_THEORY = SGP/SGP4

EPOCH          = 2026-03-23T23:52:02.009280
MEAN_MOTION    = 14.47315575
ECCENTRICITY   = .00060926
INCLINATION    = 34.9926
RA_OF_ASC_NODE = 185.3536
ARG_OF_PERICENTER = 309.0164
MEAN_ANOMALY   = 50.9984

EPHEMERIS_TYPE = 0
CLASSIFICATION_TYPE = U
NORAD_CAT_ID   = 3597
ELEMENT_SET_NO = 999
REV_AT_EPOCH   = 2117
BSTAR          = .6977789E-4
MEAN_MOTION_DOT = .24E-5
MEAN_MOTION_DDOT = 0

CCSDS_OMM_VERS = 2.0
CREATION_DATE  = 
ORIGINATOR     = 

OBJECT_NAME    = ISIS 1
OBJECT_ID      = 1969-009A
CENTER_NAME    = EARTH
REF_FRAME      = TEME
TIME_SYSTEM    = UTC
MEAN_ELEMENT_THEORY = SGP/SGP4

EPOCH          = 2026-03-24T05:37:10.222176
MEAN_MOTION    = 11.30417954
ECCENTRICITY   = .17078715
INCLINATION    = 88.4518
RA_OF_ASC_NODE = 153.7218
ARG_OF_PERICENTER = 59.8229
MEAN_ANOMALY   = 316.0988

EPHEMERIS_TYPE = 0
CLASSIFICATION_TYPE = U
NORAD_CAT_ID   = 3669
ELEMENT_SET_NO = 999
REV_AT_EPOCH   = 35017
BSTAR          = .6970492E-4
MEAN_MOTION_DOT = .119E-5
MEAN_MOTION_DDOT = 0

CCSDS_OMM_VERS = 2.0
CREATION_DATE  = 
ORIGINATOR     = 

OBJECT_NAME    = SERT 2
OBJECT_ID      = 1970-009A
CENTER_NAME    = EARTH
REF_FRAME      = TEME
TIME_SYSTEM    = UTC
MEAN_ELEMENT_THEORY = SGP/SGP4

EPOCH          = 2026-03-24T02:54:10.390176
MEAN_MOTION    = 13.58731115
ECCENTRICITY   = .00055239
INCLINATION    = 99.2778
RA_OF_ASC_NODE = 25.4262
ARG_OF_PERICENTER = 121.9227
MEAN_ANOMALY   = 248.7259

EPHEMERIS_TYPE = 0
CLASSIFICATION_TYPE = U
NORAD_CAT_ID   = 4327
ELEMENT_SET_NO = 999
REV_AT_EPOCH   = 78185
BSTAR          = .76715829E-4
MEAN_MOTION_DOT = .15E-6
MEAN_MOTION_DDOT = 0

CCSDS_OMM_VERS = 2.0
CREATION_DATE  = 
ORIGINATOR     = 

OBJECT_NAME    = SL-3 R/B
OBJECT_ID      = 1971-028B
CENTER_NAME    = EARTH
REF_FRAME      = TEME
TIME_SYSTEM    = UTC
MEAN_ELEMENT_THEORY = SGP/SGP4

EPOCH          = 2026-03-24T04:48:38.436768
MEAN_MOTION    = 15.62399091
ECCENTRICITY   = .00139238
INCLINATION    = 81.2375
RA_OF_ASC_NODE = 34.0917
ARG_OF_PERICENTER = 223.8745
MEAN_ANOMALY   = 136.1404

EPHEMERIS_TYPE = 0
CLASSIFICATION_TYPE = U
NORAD_CAT_ID   = 5118
ELEMENT_SET_NO = 999
REV_AT_EPOCH   = 99093
BSTAR          = .49083647E-3
MEAN_MOTION_DOT = .43855E-3
MEAN_MOTION_DDOT = 0

CCSDS_OMM_VERS = 2.0
CREATION_DATE  = 
ORIGINATOR     = 

OBJECT_NAME    = ASTEX 1
OBJECT_ID      = 1971-089A
CENTER_NAME    = EARTH
REF_FRAME      = TEME
TIME_SYSTEM    = UTC
MEAN_ELEMENT_THEORY = SGP/SGP4

EPOCH          = 2026-03-24T04:02:56.190624
MEAN_MOTION    = 14.50784219
ECCENTRICITY   = .00169546
INCLINATION    = 92.7100
RA_OF_ASC_NODE = 156.4400
ARG_OF_PERICENTER = 42.6048
MEAN_ANOMALY   = 317.6470

EPHEMERIS_TYPE = 0
CLASSIFICATION_TYPE = U
NORAD_CAT_ID   = 5560
ELEMENT_SET_NO = 999
REV_AT_EPOCH   = 86440
BSTAR          = .10898597E-3
MEAN_MOTION_DOT = .429E-5
MEAN_MOTION_DDOT = 0

CCSDS_OMM_VERS = 2.0
CREATION_DATE  = 
ORIGINATOR     = 

OBJECT_NAME    = SL-8 R/B
OBJECT_ID      = 1971-119B
CENTER_NAME    = EARTH
REF_FRAME      = TEME
TIME_SYSTEM    = UTC
MEAN_ELEMENT_THEORY = SGP/SGP4

EPOCH          = 2026-03-24T04:44:23.057376
MEAN_MOTION    = 14.38155908
ECCENTRICITY   = .05469005
INCLINATION    = 73.8860
RA_OF_ASC_NODE = 148.5967
ARG_OF_PERICENTER = 112.1646
MEAN_ANOMALY   = 253.8472

EPHEMERIS_TYPE = 0
CLASSIFICATION_TYPE = U
NORAD_CAT_ID   = 5730
ELEMENT_SET_NO = 999
REV_AT_EPOCH   = 65757
BSTAR          = .37236299E-3
MEAN_MOTION_DOT = .7109E-4
MEAN_MOTION_DDOT = 0

CCSDS_OMM_VERS = 2.0
CREATION_DATE  = 
ORIGINATOR     = 

OBJECT_NAME    = OAO 3 (COPERNICUS)
OBJECT_ID      = 1972-065A
CENTER_NAME    = EARTH
REF_FRAME      = TEME
TIME_SYSTEM    = UTC
MEAN_ELEMENT_THEORY = SGP/SGP4

EPOCH          = 2026-03-24T02:48:51.074784
MEAN_MOTION    = 14.60009073
ECCENTRICITY   = .00073275
INCLINATION    = 35.0048
RA_OF_ASC_NODE = 215.1139
ARG_OF_PERICENTER = 278.5947
MEAN_ANOMALY   = 248.0783

EPHEMERIS_TYPE = 0
CLASSIFICATION_TYPE = U
NORAD_CAT_ID   = 6153
ELEMENT_SET_NO = 999
REV_AT_EPOCH   = 84830
BSTAR          = .74989771E-4
MEAN_MOTION_DOT = .345E-5
MEAN_MOTION_DDOT = 0

